COSMOS 1892             
1 18421U 87088A   19328.81105993  .00000627  00000-0  30022-4 0  9992
2 18421  82.4986 117.0474 0016505  63.1570 297.1348 15.16971729753599
SL-14 R/B               
1 18749U 88001B   19329.53278321  .00000083  00000-0  72843-5 0  9991
2 18749  82.5146 189.6831 0017279 252.3380 156.7465 14.83202608722595
COSMOS 1933             
1 18958U 88020A   19329.50295161 -.00000150  00000-0 -13043-4 0  9995
2 18958  82.5274 323.4886 0012962 125.4069 234.8369 15.03654387725452
SL-3 R/B                
1 19046U 88032B   19328.83207772  .00000966  00000-0  75847-4 0  9996
2 19046  97.4198 353.8089 0037323 185.4654 174.6169 15.02627506706378
SL-16 R/B               
1 19120U 88039B   19328.79855827  .00000093  00000-0  67404-4 0  9992
2 19120  71.0156 243.0748 0024352 263.2783  96.5570 14.19198756632475
COSMOS 1953             
1 19210U 88050A   19328.79558086  .00001019  00000-0  68015-4 0  9990
2 19210  82.5179 249.4229 0014698  98.3546 261.9348 15.05865148690711
SL-8 R/B                
1 19257U 88053B   19328.73066234  .00000060  00000-0  28734-4 0  9996
2 19257  74.0503  19.2459 0019532  46.5349  92.2459 14.37447359646448
COSMOS 1975             
1 19573U 88093A   19328.75450996  .00000211  00000-0  12880-4 0  9998
2 19573  82.5217 203.4011 0015134 140.2026 220.0313 15.04778065693712
SL-14 R/B               
1 19574U 88093B   19328.76107679  .00000089  00000-0  78428-5 0  9991
2 19574  82.5343  32.3861 0022980  62.3695  77.0571 14.83312816660374
SL-16 R/B               
1 19650U 88102B   19328.46008703  .00000109  00000-0  79964-4 0  9990
2 19650  70.9996 303.0648 0016730 268.3542  91.5664 14.15788700602004
INTERCOSMOS 24          
1 20261U 89080A   19328.67570925 -.00000082  00000-0 -29154-4 0  9997
2 20261  82.6036 153.4543 1202505 202.5956 151.7652 12.56107526377758
SL-14 R/B               
1 20262U 89080C   19328.77974913  .00000103  00000-0  24461-4 0  9992
2 20262  82.5952 205.6732 1237362  26.1318 339.7167 12.48928918372881
DELTA 2 R/B(1)          
1 20303U 89085B   19328.18608406  .00001759  00000-0  59289-4 0  9993
2 20303  35.6272 225.7711 0095553 143.1035 217.6313 15.26760073636515
DELTA 1 R/B             
1 20323U 89089B   19329.51672470  .00000038  00000-0  18732-4 0  9996
2 20323  97.0655 143.4536 0072426 155.1666 205.3045 14.48323489583732
DELTA 2 R/B(1)          
1 20362U 89097B   19328.73441564  .00083675  00000-0  31698-3 0  9992
2 20362  35.6030  65.5091 0019553  72.4313  57.7784 15.86104064639923
ARIANE 40 R/B           
1 20443U 90005H   19328.77376480  .00000013  00000-0  19153-4 0  9999
2 20443  98.6064  25.6214 0009627 231.4337 128.5987 14.38076329562810
DELTA 2 R/B(1)          
1 20453U 90008B   19329.46907019  .00000705  00000-0  43092-4 0  9995
2 20453  35.6257  24.6824 0281739  34.1290 327.7196 14.85200183580706
COSMOS 2058             
1 20465U 90010A   19328.84303041  .00000250  00000-0  18823-4 0  9996
2 20465  82.4880 111.1927 0015751 168.7186 191.4393 14.97934799597549
SL-14 R/B               
1 20466U 90010B   19328.79811007  .00000073  00000-0  64220-5 0  9993
2 20466  82.5039 259.2181 0019132 295.1872  64.7358 14.81369543588283
SL-14 R/B               
1 20511U 90018B   19328.79582150  .00000104  00000-0  10586-4 0  9996
2 20511  82.5245 204.6914 0018964  73.8438 331.0745 14.80025719582694
HST                     
1 20580U 90037B   19329.42569444  .00000485  00000-0  18587-4 0  9996
2 20580  28.4688 235.6498 0002793  47.9323 289.4868 15.09304175425044
SL-16 R/B               
1 20625U 90046B   19328.73960442 -.00000317  00000-0 -14003-3 0  9996
2 20625  70.9995  79.9835 0015105 203.8319 156.2106 14.14647403523527
COSMOS 2084             
1 20663U 90055A   19329.50807795  .00000040  00000-0  22034-4 0  9990
2 20663  62.7933 132.4417 0051065 194.1651 165.8014 14.92030640592780
SL-6 R/B(2)             
1 20666U 90055D   19329.46131187 -.00000018  00000-0  16097-4 0  9991
2 20666  62.7877  49.4889 0026015 263.3848  96.4284 14.92288135594171
SL-8 R/B                
1 20775U 90078B   19328.76568497  .00001561  00000-0  73216-4 0  9996
2 20775  82.9297  36.1791 0577127 111.6354 254.7317 14.33821304476260
SL-8 R/B                
1 21088U 91006B   19329.49479498  .00000013  00000-0 -22213-5 0  9993
2 21088  82.9431  77.6126 0022126 348.2146  61.4874 13.77130251448273
OKEAN-3                 
1 21397U 91039A   19328.67899719  .00000236  00000-0  20148-4 0  9993
2 21397  82.5229  12.2826 0019020 134.9719 225.3047 14.92861383542626
COSMOS 2151             
1 21422U 91042A   19328.84998503  .00000167  00000-0  13917-4 0  9995
2 21422  82.4987 118.6970 0013808 194.1610 165.9225 14.92086271541308
SL-14 R/B               
1 21423U 91042B   19328.76572701  .00000046  00000-0  29860-5 0  9996
2 21423  82.4956 209.1368 0016788 208.9564 151.0719 14.79776046534288
ERS-1                   
1 21574U 91050A   19328.83634391  .00000026  00000-0  23300-4 0  9994
2 21574  98.5700 277.4514 0032869 177.3085 182.8284 14.37718006485556
ARIANE 40 R/B           
1 21610U 91050F   19328.80027194  .00000008  00000-0  16235-4 0  9998
2 21610  98.4922  34.8126 0003921 142.6342 325.9234 14.40888313488364
INTERCOSMOS 25          
1 21819U 91086A   19328.85959445 -.00000043  00000-0 -11426-4 0  9994
2 21819  82.5973 249.3305 1517295 350.1124   7.2916 12.05095964219524
SL-8 R/B                
1 21876U 92008B   19328.75539622 -.00000023  00000-0 -40294-4 0  9995
2 21876  82.9264 175.3139 0035911  68.7270 339.1286 13.75645168393828
SL-8 R/B                
1 21938U 92020B   19329.44056236  .00000030  00000-0  15729-4 0  9991
2 21938  82.9326  58.7813 0028404 223.5115 185.9861 13.75281678385792
COSMOS 2219             
1 22219U 92076A   19328.79896695  .00000317  00000-0  19253-3 0  9996
2 22219  71.0577 137.3145 0016585 111.1424 249.1473 14.13635009393757
SL-16 R/B               
1 22220U 92076B   19329.51068774 -.00000221  00000-0 -87067-4 0  9993
2 22220  71.0003 343.0003 0013404 343.8974 177.9210 14.16449579396986
COSMOS 2221             
1 22236U 92080A   19328.50324346  .00000209  00000-0  20107-4 0  9999
2 22236  82.5061 298.2344 0015149 287.2466  72.7094 14.87873635459690
SL-16 R/B               
1 22285U 92093B   19328.80356789  .00000116  00000-0  84236-4 0  9996
2 22285  71.0200 143.9454 0005691 230.8047 129.2571 14.15040763388249
COSMOS 2228             
1 22286U 92094A   19328.82159289  .00000191  00000-0  17896-4 0  9997
2 22286  82.5212 253.9167 0022387  46.9304 313.3783 14.88088266454937
SL-16 R/B               
1 22566U 93016B   19328.67741411 -.00000020  00000-0  14542-4 0  9997
2 22566  71.0086 357.6988 0012029 228.4599 131.5493 14.14964968377234
COSMOS 2242             
1 22626U 93024A   19328.84668542  .00000169  00000-0  15673-4 0  9994
2 22626  82.5209 281.9332 0020169  47.1681 313.1227 14.87945485438288
SL-16 R/B               
1 22803U 93059B   19328.80993601  .00000065  00000-0  56271-4 0  9996
2 22803  70.9879 172.6365 0015128 112.2560 248.0169 14.16817390354171
ARIANE 40 R/B           
1 22830U 93061H   19328.72975428 -.00000014  00000-0  12074-4 0  9995
2 22830  98.7962  10.6794 0010642 199.6535 160.4239 14.31441703365643
COSMOS 2278             
1 23087U 94023A   19328.85370291 -.00000240  00000-0 -10163-3 0  9998
2 23087  71.0539 297.3914 0011702 290.2485  69.7379 14.13800153320386
SL-16 R/B               
1 23088U 94023B   19328.85260887  .00000147  00000-0  10087-3 0  9997
2 23088  71.0006 212.6588 0004247 219.6033 140.4779 14.14687486321502
SL-16 R/B               
1 23343U 94074B   19328.75047774  .00000026  00000-0  11034-4 0  9994
2 23343  98.0315  18.2026 0008268  92.8909  19.4615 14.76800037348055
SL-16 R/B               
1 23405U 94077B   19328.66109925  .00000140  00000-0  96866-4 0  9996
2 23405  70.9803 143.1593 0001656 354.1710   5.9393 14.15216200291247
ERS-2                   
1 23560U 95021A   19328.78954975  .00001256  00000-0  57404-4 0  9998
2 23560  98.5169  89.5948 0004187 139.5766 220.5779 15.22874252310842
ARIANE 40+ R/B          
1 23561U 95021B   19328.70606574  .00000041  00000-0  28699-4 0  9995
2 23561  98.7515 359.4495 0007650 138.3052 330.2319 14.37944648289227
SL-16 R/B               
1 23705U 95058B   19329.38649612 -.00000046  00000-0  83051-6 0  9991
2 23705  71.0199 319.2104 0011860   8.9804 351.1528 14.15127233243262
SL-16 R/B               
1 24298U 96051B   19329.49691828  .00000158  00000-0  11197-3 0  9993
2 24298  70.8358 342.6292 0018376 289.4796  70.4338 14.12452514197670
ORBVIEW 2 (SEASTAR)     
1 24883U 97037A   19328.84824681  .00000003  00000-0  17201-4 0  9993
2 24883  98.5974  78.3911 0002349  20.4888 339.6391 14.33529054179250
SL-16 R/B               
1 25400U 98043G   19329.46919218 -.00000029  00000-0  62113-5 0  9999
2 25400  98.5874 264.3907 0009321 207.1952 152.8741 14.25446089112045
SL-16 R/B               
1 25407U 98045B   19328.59901644 -.00000031  00000-0  84044-5 0  9995
2 25407  71.0100 330.2217 0010114 284.7860  75.2142 14.15795247101940
ISS (ZARYA)             
1 25544U 98067A   19329.61871528  .00001217  00000-0  29296-4 0  9995
2 25544  51.6460 280.9321 0006326 324.5134  26.3140 15.50040121200296
SL-8 R/B                
1 25723U 99022C   19328.69303425  .00016574  00000-0  14698-3 0  9990
2 25723  48.4132  49.9387 0006114  38.2074 321.9309 15.68596067145302
CZ-4B R/B               
1 25732U 99025C   19328.75274264 -.00000013  00000-0  15613-4 0  9999
2 25732  98.9658 350.8427 0038317  77.0934  51.7432 14.17670212 62817
OKEAN-O                 
1 25860U 99039A   19328.65114282  .00000067  00000-0  17222-4 0  9994
2 25860  98.2246 338.9462 0001528 111.8351 248.3020 14.76633361 95143
SL-16 R/B               
1 25861U 99039B   19328.73728024  .00000039  00000-0  12772-4 0  9993
2 25861  98.2000 321.9398 0016972  97.9390 314.2659 14.78553110 97225
